ADRAS-J                 
1 58992U 24034A   24167.50344625  .00004591  00000+0  42779-3 0  9995
2 58992  98.2115 140.4454 0045478  55.7457 304.8057 14.94011051 17612
